[{"OBJECT_NAME":"STARLINK-5788","OBJECT_ID":"2023-090AZ","EPOCH":"2026-03-09T22:00:01.999584","MEAN_MOTION":15.05239756,"ECCENTRICITY":6.894e-5,"INCLINATION":43.0008,"RA_OF_ASC_NODE":260.1536,"ARG_OF_PERICENTER":270.9238,"MEAN_ANOMALY":328.0895,"EPHEMERIS_TYPE":0,"CLASSIFICATION_TYPE":"U","NORAD_CAT_ID":57148,"ELEMENT_SET_NO":999,"REV_AT_EPOCH":577,"BSTAR":0.0053099636,"MEAN_MOTION_DOT":0.00077748,"MEAN_MOTION_DDOT":0},{"OBJECT_NAME":"STRIX-2","OBJECT_ID":"2024-248A","EPOCH":"2026-03-09T23:00:54.819648","MEAN_MOTION":15.07630986,"ECCENTRICITY":0.00151844,"INCLINATION":97.6197,"RA_OF_ASC_NODE":25.3276,"ARG_OF_PERICENTER":319.5195,"MEAN_ANOMALY":40.4902,"EPHEMERIS_TYPE":0,"CLASSIFICATION_TYPE":"U","NORAD_CAT_ID":62406,"ELEMENT_SET_NO":999,"REV_AT_EPOCH":6663,"BSTAR":0.00066021351,"MEAN_MOTION_DOT":0.00010025,"MEAN_MOTION_DDOT":0}]
